[{"OBJECT_NAME":"GOES 18","OBJECT_ID":"2022-021A","EPOCH":"2026-03-02T18:32:38.789088","MEAN_MOTION":1.00271247,"ECCENTRICITY":5.481e-5,"INCLINATION":0.0258,"RA_OF_ASC_NODE":75.1977,"ARG_OF_PERICENTER":314.4181,"MEAN_ANOMALY":272.075,"EPHEMERIS_TYPE":0,"CLASSIFICATION_TYPE":"U","NORAD_CAT_ID":51850,"ELEMENT_SET_NO":999,"REV_AT_EPOCH":552,"BSTAR":0,"MEAN_MOTION_DOT":8.0e-7,"MEAN_MOTION_DDOT":0},{"OBJECT_NAME":"GOES 19","OBJECT_ID":"2024-119A","EPOCH":"2026-03-02T20:36:15.125760","MEAN_MOTION":1.00272261,"ECCENTRICITY":9.39e-5,"INCLINATION":0.0118,"RA_OF_ASC_NODE":287.3929,"ARG_OF_PERICENTER":86.6796,"MEAN_ANOMALY":20.4147,"EPHEMERIS_TYPE":0,"CLASSIFICATION_TYPE":"U","NORAD_CAT_ID":60133,"ELEMENT_SET_NO":999,"REV_AT_EPOCH":589,"BSTAR":0,"MEAN_MOTION_DOT":-2.65e-6,"MEAN_MOTION_DDOT":0}]
